{
  "type": "FeatureCollection",
  "features": [
    {
      "type": "Feature",
      "properties": {
        "norad_id": 29922,
        "name": "FENGYUN 1C DEB",
        "group": "fengyun-1c-debris",
        "lat": -76.6607138733738,
        "lon": -176.97898300840086,
        "alt_km": 920.0402486067533,
        "timestamp": "2025-12-14T07:33:19.749777+00:00",
        "meta_object_name": "FENGYUN 1C DEB",
        "meta_object_id": "1999-025HU",
        "meta_epoch": "2025-12-13T14:51:27.812160",
        "meta_mean_motion": 13.98581209,
        "meta_eccentricity": 0.00931881,
        "meta_inclination": 99.1357,
        "meta_ra_of_asc_node": 45.065,
        "meta_arg_of_pericenter": 4.5956,
        "meta_mean_anomaly": 355.6042,
        "meta_ephemeris_type": 0,
        "meta_classification_type": "U",
        "meta_norad_cat_id": 29922,
        "meta_element_set_no": 999,
        "meta_rev_at_epoch": 96453,
        "meta_bstar": 0.00012586233,
        "meta_mean_motion_dot": 1.42e-06,
        "meta_mean_motion_ddot": 0,
        "tle_line1": "1 29922U 99025HU  25347.61907190  .00000142  00000+0  12586-3 0  9994",
        "tle_line2": "2 29922  99.1357  45.0650 0093188   4.5956 355.6042 13.98581209964536"
      },
      "geometry": {
        "type": "Point",
        "coordinates": [
          -176.97898300840086,
          -76.6607138733738
        ]
      }
    },
    {
      "type": "Feature",
      "properties": {
        "norad_id": 29923,
        "name": "FENGYUN 1C DEB",
        "group": "fengyun-1c-debris",
        "lat": -9.285350565966025,
        "lon": 175.1299719417524,
        "alt_km": 838.4930203957765,
        "timestamp": "2025-12-14T07:33:19.749788+00:00",
        "meta_object_name": "FENGYUN 1C DEB",
        "meta_object_id": "1999-025HV",
        "meta_epoch": "2025-12-13T00:12:59.850720",
        "meta_mean_motion": 14.13893099,
        "meta_eccentricity": 0.00176495,
        "meta_inclination": 98.6883,
        "meta_ra_of_asc_node": 355.2935,
        "meta_arg_of_pericenter": 168.5291,
        "meta_mean_anomaly": 217.9121,
        "meta_ephemeris_type": 0,
        "meta_classification_type": "U",
        "meta_norad_cat_id": 29923,
        "meta_element_set_no": 999,
        "meta_rev_at_epoch": 97279,
        "meta_bstar": 0.00066308693,
        "meta_mean_motion_dot": 1.216e-05,
        "meta_mean_motion_ddot": 0,
        "tle_line1": "1 29923U 99025HV  25347.00902605  .00001216  00000+0  66309-3 0  9999",
        "tle_line2": "2 29923  98.6883 355.2935 0017649 168.5291 217.9121 14.13893099972794"
      },
      "geometry": {
        "type": "Point",
        "coordinates": [
          175.1299719417524,
          -9.285350565966025
        ]
      }
    },
    {
      "type": "Feature",
      "properties": {
        "norad_id": 29924,
        "name": "FENGYUN 1C DEB",
        "group": "fengyun-1c-debris",
        "lat": 44.44102057780204,
        "lon": -170.10548926482684,
        "alt_km": 868.2057730893648,
        "timestamp": "2025-12-14T07:33:19.749798+00:00",
        "meta_object_name": "FENGYUN 1C DEB",
        "meta_object_id": "1999-025HW",
        "meta_epoch": "2025-12-13T12:54:38.206080",
        "meta_mean_motion": 14.08890409,
        "meta_eccentricity": 0.00259224,
        "meta_inclination": 98.7344,
        "meta_ra_of_asc_node": 0.4707,
        "meta_arg_of_pericenter": 255.3125,
        "meta_mean_anomaly": 261.6756,
        "meta_ephemeris_type": 0,
        "meta_classification_type": "U",
        "meta_norad_cat_id": 29924,
        "meta_element_set_no": 999,
        "meta_rev_at_epoch": 97219,
        "meta_bstar": 5.4626735e-05,
        "meta_mean_motion_dot": 5.2e-07,
        "meta_mean_motion_ddot": 0,
        "tle_line1": "1 29924U 99025HW  25347.53794220  .00000052  00000+0  54627-4 0  9998",
        "tle_line2": "2 29924  98.7344   0.4707 0025922 255.3125 261.6756 14.08890409972198"
      },
      "geometry": {
        "type": "Point",
        "coordinates": [
          -170.10548926482684,
          44.44102057780204
        ]
      }
    },
    {
      "type": "Feature",
      "properties": {
        "norad_id": 29926,
        "name": "FENGYUN 1C DEB",
        "group": "fengyun-1c-debris",
        "lat": 38.87613954339808,
        "lon": 163.8951370110073,
        "alt_km": 937.6403085559496,
        "timestamp": "2025-12-14T07:33:19.749808+00:00",
        "meta_object_name": "FENGYUN 1C DEB",
        "meta_object_id": "1999-025HY",
        "meta_epoch": "2025-12-13T11:30:26.261568",
        "meta_mean_motion": 14.33398001,
        "meta_eccentricity": 0.02481828,
        "meta_inclination": 98.2835,
        "meta_ra_of_asc_node": 336.3497,
        "meta_arg_of_pericenter": 298.0285,
        "meta_mean_anomaly": 215.6754,
        "meta_ephemeris_type": 0,
        "meta_classification_type": "U",
        "meta_norad_cat_id": 29926,
        "meta_element_set_no": 999,
        "meta_rev_at_epoch": 98591,
        "meta_bstar": 0.0006226521,
        "meta_mean_motion_dot": 2.371e-05,
        "meta_mean_motion_ddot": 0,
        "tle_line1": "1 29926U 99025HY  25347.47947062  .00002371  00000+0  62265-3 0  9999",
        "tle_line2": "2 29926  98.2835 336.3497 0248182 298.0285 215.6754 14.33398001985913"
      },
      "geometry": {
        "type": "Point",
        "coordinates": [
          163.8951370110073,
          38.87613954339808
        ]
      }
    },
    {
      "type": "Feature",
      "properties": {
        "norad_id": 29927,
        "name": "FENGYUN 1C DEB",
        "group": "fengyun-1c-debris",
        "lat": 35.786212609979216,
        "lon": -160.92149649538968,
        "alt_km": 637.8185886844021,
        "timestamp": "2025-12-14T07:33:19.749819+00:00",
        "meta_object_name": "FENGYUN 1C DEB",
        "meta_object_id": "1999-025HZ",
        "meta_epoch": "2025-12-13T15:09:59.824224",
        "meta_mean_motion": 14.74618804,
        "meta_eccentricity": 0.00178226,
        "meta_inclination": 99.0853,
        "meta_ra_of_asc_node": 11.6895,
        "meta_arg_of_pericenter": 207.2612,
        "meta_mean_anomaly": 273.5011,
        "meta_ephemeris_type": 0,
        "meta_classification_type": "U",
        "meta_norad_cat_id": 29927,
        "meta_element_set_no": 999,
        "meta_rev_at_epoch": 98660,
        "meta_bstar": 0.0032418605,
        "meta_mean_motion_dot": 0.00021674,
        "meta_mean_motion_ddot": 0,
        "tle_line1": "1 29927U 99025HZ  25347.63194241  .00021674  00000+0  32419-2 0  9995",
        "tle_line2": "2 29927  99.0853  11.6895 0017822 207.2612 273.5011 14.74618804986606"
      },
      "geometry": {
        "type": "Point",
        "coordinates": [
          -160.92149649538968,
          35.786212609979216
        ]
      }
    },
    {
      "type": "Feature",
      "properties": {
        "norad_id": 29928,
        "name": "FENGYUN 1C DEB",
        "group": "fengyun-1c-debris",
        "lat": 53.42270984163541,
        "lon": -154.21419309059368,
        "alt_km": 836.0627683436387,
        "timestamp": "2025-12-14T07:33:19.749829+00:00",
        "meta_object_name": "FENGYUN 1C DEB",
        "meta_object_id": "1999-025JA",
        "meta_epoch": "2025-12-12T14:02:52.785888",
        "meta_mean_motion": 13.88084152,
        "meta_eccentricity": 0.01434111,
        "meta_inclination": 99.5851,
        "meta_ra_of_asc_node": 10.8478,
        "meta_arg_of_pericenter": 103.4977,
        "meta_mean_anomaly": 23.3852,
        "meta_ephemeris_type": 0,
        "meta_classification_type": "U",
        "meta_norad_cat_id": 29928,
        "meta_element_set_no": 999,
        "meta_rev_at_epoch": 95489,
        "meta_bstar": 0.00087301739,
        "meta_mean_motion_dot": 1.084e-05,
        "meta_mean_motion_ddot": 0,
        "tle_line1": "1 29928U 99025JA  25346.58533317  .00001084  00000+0  87302-3 0  9995",
        "tle_line2": "2 29928  99.5851  10.8478 0143411 103.4977  23.3852 13.88084152954890"
      },
      "geometry": {
        "type": "Point",
        "coordinates": [
          -154.21419309059368,
          53.42270984163541
        ]
      }
    },
    {
      "type": "Feature",
      "properties": {
        "norad_id": 29929,
        "name": "FENGYUN 1C DEB",
        "group": "fengyun-1c-debris",
        "lat": 60.41197734706611,
        "lon": -108.02819951281195,
        "alt_km": 914.9477006947945,
        "timestamp": "2025-12-14T07:33:19.749839+00:00",
        "meta_object_name": "FENGYUN 1C DEB",
        "meta_object_id": "1999-025JB",
        "meta_epoch": "2025-12-13T16:11:04.468128",
        "meta_mean_motion": 14.01364559,
        "meta_eccentricity": 0.0131222,
        "meta_inclination": 98.6235,
        "meta_ra_of_asc_node": 266.8677,
        "meta_arg_of_pericenter": 173.6051,
        "meta_mean_anomaly": 260.2033,
        "meta_ephemeris_type": 0,
        "meta_classification_type": "U",
        "meta_norad_cat_id": 29929,
        "meta_element_set_no": 999,
        "meta_rev_at_epoch": 95969,
        "meta_bstar": 0.0012613309,
        "meta_mean_motion_dot": 2.01e-05,
        "meta_mean_motion_ddot": 0,
        "tle_line1": "1 29929U 99025JB  25347.67435727  .00002010  00000+0  12613-2 0  9995",
        "tle_line2": "2 29929  98.6235 266.8677 0131222 173.6051 260.2033 14.01364559959694"
      },
      "geometry": {
        "type": "Point",
        "coordinates": [
          -108.02819951281195,
          60.41197734706611
        ]
      }
    }
  ]
}